51P-A/Harrington,e,5.4261,269.2258,83.6248,3.706614,0.1381141,0.54285681,171.7076,02/27.0/2026,2000,g 10.0,8.0
# From MPC191597
52P/Harrington-Abell,e,10.2412,336.7405,139.6479,3.861674,0.1298795,0.54121809,208.3418,02/27.0/2026,2000,g 13.5,6.0
# From MPC191597
53P/VanBiesbroeck,e,6.6054,148.8484,134.3286,5.440589,0.0776668,0.55021127,279.8339,02/27.0/2026,2000,g  7.7,4.8
# From MPC191597
54P/deVico-Swift-NEAT,e,6.0778,358.3506,2.4480,3.795196,0.1333070,0.42910112,71.9837,02/27.0/2026,2000,g 10.0,6.0
# From MPC191597
55P/Tempel-Tuttle,e,162.4913,235.4085,172.5362,10.33323,0.0296722,0.90535071,303.2524,02/27.0/2026,2000,g 10.0,10.0
# From MPC191597
56P/Slaughter-Burnham,e,8.1552,345.8685,44.2387,5.062714,0.0865225,0.50814283,302.8377,02/27.0/2026,2000,g  8.5,6.0
# From MPC191597
57P/duToit-Neujmin-Delporte,e,2.8557,188.6894,115.1164,3.439508,0.1545111,0.50208708,246.2999,02/27.0/2026,2000,g 12.5,6.0
# From MPC191597
58P/Jackson-Neujmin,e,13.0832,159.0254,200.5773,4.091975,0.1190706,0.66135187,250.4283,02/27.0/2026,2000,g 15.5,6.0
# From MPC191598
59P/Kearns-Kwee,e,9.3576,312.7263,127.7031,4.477888,0.1040146,0.47700334,282.2345,02/27.0/2026,2000,g  7.0,6.0
# From MPC191598
60P/Tsuchinshan,e,3.5798,267.3954,216.9171,3.529334,0.1486500,0.53368126,32.9099,02/27.0/2026,2000,g 11.5,6.0
# From MPC191598
61P/Shajn-Schaldach,e,5.9955,162.9542,221.7186,3.691392,0.1389693,0.42273205,169.9654,02/27.0/2026,2000,g  6.0,10.0
# From MPC191598
62P/Tsuchinshan,e,4.7360,68.6601,47.3524,3.371622,0.1592010,0.62473393,126.5144,02/27.0/2026,2000,g  8.0,10.0
# From MPC191598
63P/Wild,e,19.6173,357.7453,168.7355,5.657475,0.0732437,0.65092326,350.5413,02/27.0/2026,2000,g 10.5,6.0
# From MPC191598
64P/Swift-Gehrels,e,8.9549,299.7612,97.3410,4.452345,0.1049110,0.68820268,279.9215,02/27.0/2026,2000,g  9.5,12.0
# From MPC191598
65P/Gunn,e,9.1749,61.9694,213.6379,3.891400,0.1283941,0.24807229,32.8325,02/27.0/2026,2000,g  5.0,6.0
# From MPC191598
66P/duToit,e,18.6468,21.8608,257.3340,6.070543,0.0658966,0.78492636,187.7788,02/27.0/2026,2000,g 12.0,3.6
# From MPC191598
67P/Churyumov-Gerasimenko,e,3.8669,36.2991,22.2317,3.458786,0.1532211,0.64965525,241.6514,02/27.0/2026,2000,g 11.0,4.0
# From MPC191598
68P/Klemola,e,11.0966,175.0977,153.1874,4.964400,0.0891054,0.63560390,205.5183,02/27.0/2026,2000,g 10.0,4.0
# From MPC191599
69P/Taylor,e,22.0611,104.8065,343.5430,3.878994,0.1290106,0.41466422,326.6570,02/27.0/2026,2000,g  9.5,12.0
# From MPC191599
70P/Kojima,e,6.6037,119.2362,1.8160,3.674830,0.1399098,0.45495453,220.3792,02/27.0/2026,2000,g 11.0,6.0
# From MPC191599
71P/Clark,e,9.1884,58.8744,210.8470,3.186375,0.1732841,0.48182780,197.0451,02/27.0/2026,2000,g  9.8,6.0
# From MPC191599
72P/Denning-Fujikawa,e,10.9392,26.7345,346.7344,4.307634,0.1102417,0.81812830,108.8839,02/27.0/2026,2000,g 17.5,10.0
# From MPC191599
73P/Schwassmann-Wachmann,e,6.2859,53.1472,213.9089,3.055471,0.1845384,0.70383547,237.7568,02/27.0/2026,2000,g 11.5,6.0
# From MPC106348
73P-BT/Schwassmann-Wachmann,e,10.6080,189.6985,78.4766,3.080989,0.1822506,0.69246189,233.5340,02/27.0/2026,2000,g 11.5,6.0
# From MPC191599
74P/Smirnova-Chernykh,e,5.9082,50.3942,57.9042,5.158824,0.0841159,0.06231983,359.6093,02/27.0/2026,2000,g  5.0,6.0
# From MPC191599
76P/West-Kohoutek-Ikemura,e,30.4982,84.1089,0.0242,3.467186,0.1526646,0.53945656,353.0319,02/27.0/2026,2000,g  8.0,12.0
# From MPC191599
77P/Longmore,e,24.3320,14.7476,196.5880,3.619353,0.1431389,0.35209174,151.8721,02/27.0/2026,2000,g  7.0,8.0
# From MPC191599
78P/Gehrels,e,6.2574,210.4949,192.7897,3.732302,0.1366907,0.46292707,343.8586,02/27.0/2026,2000,g  5.5,8.0
# From MPC191599
79P/duToit-Hartley,e,3.1489,280.4829,281.7659,2.941964,0.1953206,0.61959968,171.9881,02/27.0/2026,2000,g 16.0,4.0
# From MPC191600
80P/Peters-Hartley,e,29.9292,259.7691,339.2467,4.020789,0.1222467,0.59771906,143.9020,02/27.0/2026,2000,g  9.0,8.0
# From MPC191600
81P/Wild,e,3.2388,136.1067,41.5452,3.450903,0.1537464,0.53794432,179.6962,02/27.0/2026,2000,g  7.0,6.0
# From MPC191600
82P/Gehrels,e,1.1293,239.2900,226.3316,4.134011,0.1172591,0.12333680,329.3530,02/27.0/2026,2000,g  5.0,8.0
# From MPC191600
84P/Giclas,e,7.5529,108.0797,281.7426,3.549976,0.1473554,0.51556600,308.3229,02/27.0/2026,2000,g  9.5,8.0
# From MPC191600
86P/Wild,e,15.4603,72.0748,180.9557,3.654998,0.1410501,0.35979717,210.4471,02/27.0/2026,2000,g 11.0,6.0
# From MPC191600
87P/Bus,e,3.8611,175.6081,63.7411,4.463956,0.1045019,0.19609492,232.4750,02/27.0/2026,2000,g  7.2,10.0
# From MPC191600
88P/Howell,e,4.3819,56.6692,235.8665,3.109103,0.1797842,0.56328174,356.4454,02/27.0/2026,2000,g 11.0,6.0
# From MPC191600
89P/Russell,e,12.0667,41.3389,250.4785,3.751866,0.1356229,0.40706096,95.2850,02/27.0/2026,2000,g 11.5,6.0
# From MPC191600
90P/Gehrels,e,9.6332,13.1461,29.2359,6.055728,0.0661385,0.51018230,209.6982,02/27.0/2026,2000,g  8.5,6.0
# From MPC191600
91P/Russell,e,15.9433,241.9237,356.8497,4.163148,0.1160303,0.25127175,247.2550,02/27.0/2026,2000,g  7.5,6.0
# From MPC191601
92P/Sanguin,e,19.4773,181.3335,163.7798,5.345980,0.0797376,0.65991341,319.8540,02/27.0/2026,2000,g 12.0,6.0
# From MPC191601
93P/Lovas,e,12.2106,339.5496,75.0433,4.372216,0.1078082,0.61383483,352.9980,02/27.0/2026,2000,g  9.5,6.0
# From MPC191601
94P/Russell,e,6.1871,70.8369,92.3860,3.509576,0.1499070,0.36623913,151.7818,02/27.0/2026,2000,g  9.0,6.0
# From MPC191601
96P/Machholz,e,57.5785,93.9600,14.7416,3.030985,0.1867791,0.96173190,209.6415,02/27.0/2026,2000,g 13.0,4.8
# From MPC106348
96P-B/Machholz,e,57.5098,14.4958,94.0669,3.029971,0.1868729,0.96175066,209.8062,02/27.0/2026,2000,g 13.0,4.8
# From MPC191601
97P/Metcalf-Brewington,e,17.9315,184.0630,230.2396,4.771470,0.0945640,0.45959371,139.2295,02/27.0/2026,2000,g  5.5,6.0
# From MPC191601
98P/Takamizawa,e,10.9321,114.4751,158.7023,3.729973,0.1368187,0.58734107,252.0872,02/27.0/2026,2000,g  9.0,8.0
# From MPC191601
99P/Kowal,e,4.3395,28.0463,174.5059,6.092795,0.0655359,0.22901632,93.0587,02/27.0/2026,2000,g  4.5,6.0
# From MPC191601
100P/Hartley,e,25.5686,37.6860,181.8907,3.430205,0.1551401,0.41141616,201.2567,02/27.0/2026,2000,g  9.0,8.0
# From MPC191601
101P/Chernykh,e,5.0485,116.1122,278.0115,5.819414,0.0702078,0.59512132,157.1085,02/27.0/2026,2000,g 10.0,4.8
# From MPC191601
102P/Shoemaker,e,25.8446,339.3449,20.6992,3.821096,0.1319539,0.45573436,245.8872,02/27.0/2026,2000,g  6.5,8.0
# From MPC191602
103P/Hartley,e,13.6033,219.7624,181.3349,3.476254,0.1520676,0.69326474,132.1059,02/27.0/2026,2000,g  8.5,8.0
# From MPC191602
104P/Kowal,e,5.6998,207.1603,227.3357,3.208468,0.1714974,0.66581938,258.3106,02/27.0/2026,2000,g 16.0,4.0
# From MPC191602
105P/SingerBrewster,e,9.1683,192.3861,46.3090,3.472506,0.1523139,0.40918260,60.9707,02/27.0/2026,2000,g 11.5,6.0
# From MPC191602
106P/Schuster,e,19.5266,48.8650,353.8010,3.768878,0.1347057,0.59325168,222.6776,02/27.0/2026,2000,g 14.0,4.8
# From MPC191602
108P/Ciffreo,e,11.4303,50.2728,354.5650,3.744454,0.1360258,0.55539825,221.8229,02/27.0/2026,2000,g  8.0,12.0
# From MPC191602
109P/Swift-Tuttle,e,112.9101,139.8510,153.2451,26.18862,0.0073542,0.96318769,89.1459,02/27.0/2026,2000,g  4.5,6.0
# From MPC191602
110P/Hartley,e,11.7118,287.4818,167.5964,3.603250,0.1440995,0.31924633,229.2294,02/27.0/2026,2000,g  1.0,12.0
# From MPC191602
111P/Helin-Roman-Crockett,e,4.2261,89.7327,1.6078,4.153106,0.1164514,0.10712525,199.3851,02/27.0/2026,2000,g  5.0,8.0
# From MPC191602
112P/Urata-Niijima,e,24.2034,31.7972,21.5787,3.521550,0.1491432,0.59075328,329.1496,02/27.0/2026,2000,g 14.0,6.0
# From MPC191602
113P/Spitaler,e,5.2880,306.6103,115.7682,3.696848,0.1386618,0.41940207,189.4507,02/27.0/2026,2000,g 13.5,4.0
# From MPC191603
114P/Wiseman-Skiff,e,18.3034,271.0231,172.8414,3.538697,0.1480605,0.55611212,330.3897,02/27.0/2026,2000,g 11.5,6.0
# From MPC191603
115P/Maury,e,11.7000,175.8891,120.9684,4.269281,0.1117305,0.51893529,228.1129,02/27.0/2026,2000,g 10.5,6.0
# From MPC191603
116P/Wild,e,3.6052,20.9584,173.1493,3.485041,0.1514929,0.37106857,200.1061,02/27.0/2026,2000,g  2.5,10.0
# From MPC191603
117P/Helin-Roman-Alu,e,8.6513,58.7506,225.0079,4.127551,0.1175345,0.24971994,156.1857,02/27.0/2026,2000,g  2.5,8.0
# From MPC191603
118P/Shoemaker-Levy,e,10.0933,142.0431,314.9834,3.349119,0.1608082,0.45377033,191.3635,02/27.0/2026,2000,g 12.0,4.0
# From MPC191603
119P/Parker-Hartley,e,7.3929,104.5409,322.3052,3.810571,0.1325009,0.38785460,171.5444,02/27.0/2026,2000,g  3.5,8.0
# From MPC191603
120P/Mueller,e,8.4785,358.6398,36.8493,3.970888,0.1245583,0.37380160,218.8391,02/27.0/2026,2000,g 12.0,4.0
# From MPC191603
121P/Shoemaker-Holt,e,20.1619,94.1054,12.0942,4.591249,0.1001862,0.18665276,97.3351,02/27.0/2026,2000,g  6.5,8.0
# From MPC191603
122P/deVico,e,85.9581,79.7282,13.0123,17.63611,0.0133076,0.96266213,147.6957,02/27.0/2026,2000,g  7.5,5.2
# From MPC191603
123P/West-Hartley,e,15.2841,45.8751,103.9008,3.887231,0.1286008,0.44474605,333.3789,02/27.0/2026,2000,g  4.0,10.0
# From MPC191604
124P/Mrkos,e,31.4041,359.9491,185.1151,3.377732,0.1587692,0.48634913,341.4891,02/27.0/2026,2000,g 13.5,2.8
# From MPC191604
125P/Spacewatch,e,9.9862,153.1526,87.0791,3.127099,0.1782345,0.51201933,128.6593,02/27.0/2026,2000,g 13.0,6.0
# From MPC191604
126P/IRAS,e,45.8735,357.8550,356.5421,5.624635,0.0738861,0.69581539,71.5429,02/27.0/2026,2000,g  6.0,8.0
# From MPC191604
127P/Holt-Olmstead,e,14.2916,13.6147,6.3384,3.455218,0.1534585,0.35842552,199.1104,02/27.0/2026,2000,g 11.0,6.0
# From MPC191604
128P/Shoemaker-Holt,e,4.3716,214.3066,210.5545,4.480845,0.1039116,0.32225883,345.4527,02/27.0/2026,2000,g  8.5,4.0
# From MPC191604
129P/Shoemaker-Levy,e,3.4411,184.8346,308.0614,4.294897,0.1107325,0.08598533,130.6734,02/27.0/2026,2000,g 11.0,4.0
# From MPC191604
130P/McNaught-Hughes,e,6.0099,69.9512,247.1410,3.404670,0.1568887,0.46026464,106.9492,02/27.0/2026,2000,g 10.0,6.0
# From MPC191604
131P/Mueller,e,7.3623,214.1324,179.2738,3.673759,0.1399710,0.34459541,1.5787,02/27.0/2026,2000,g 11.0,4.0
# From MPC191604
